NORAD_CAT_ID,OBJECT_NAME,OBJECT_TYPE,EPOCH,MEAN_MOTION,ECCENTRICITY,INCLINATION,RA_OF_ASC_NODE,ARG_OF_PERICENTER,MEAN_ANOMALY,BSTAR,MEAN_MOTION_DOT,MEAN_MOTION_DDOT,TLE_LINE0,TLE_LINE1,TLE_LINE2,SEMIMAJOR_AXIS,PERIOD,APOGEE,PERIGEE,DECAYED
49169.0,STARLINK-3046,PAYLOAD,2024-02-10 04:11:11,14.98327665,0.0002835,70.0006,26.951,268.1248,91.9586,4.2605e-05,4.15e-06,0.0,0 STARLINK-3046,1 49169U 21082AR  24041.17443389  .00000415  00000-0  42605-4 0  9993,2 49169  70.0006  26.9510 0002835 268.1248  91.9586 14.98327665134069,6950.2,96.107,574.035,570.095,0.0
49169.0,STARLINK-3046,PAYLOAD,2024-02-10 08:59:35,14.98331392,0.0002812,70.0007,26.4459,267.7142,92.3695,6.5568e-05,6.89e-06,0.0,0 STARLINK-3046,1 49169U 21082AR  24041.37471129  .00000689  00000-0  65568-4 0  9994,2 49169  70.0007  26.4459 0002812 267.7142  92.3695 14.98331392132886,6950.189,96.107,574.008,570.099,0.0
49169.0,STARLINK-3046,PAYLOAD,2024-02-11 04:13:11,14.98334006,0.0002721,70.0009,24.4255,270.4944,89.5904,5.4847e-05,5.62e-06,0.0,0 STARLINK-3046,1 49169U 21082AR  24042.17582946  .00000562  00000-0  54847-4 0  9991,2 49169  70.0009  24.4255 0002721 270.4944  89.5904 14.98334006134215,6950.181,96.107,573.937,570.154,0.0
49169.0,STARLINK-3046,PAYLOAD,2024-02-11 09:01:35,14.9833685,0.0002583,70.0012,23.9202,269.4533,90.633,0.00010543,1.165e-05,0.0,0 STARLINK-3046,1 49169U 21082AR  24042.37610579  .00001165  00000-0  10543-3 0  9991,2 49169  70.0012  23.9202 0002583 269.4533  90.6330 14.98336850133037,6950.172,96.107,573.832,570.241,0.0
49169.0,STARLINK-3046,PAYLOAD,2024-02-12 07:27:28,14.98335095,0.0002565,70.0017,21.5652,248.5663,111.5223,0.00011386,1.266e-05,0.0,0 STARLINK-3046,1 49169U 21082AR  24043.31074314  .00001266  00000-0  11386-3 0  9995,2 49169  70.0017  21.5652 0002565 248.5663 111.5223 14.98335095134380,6950.177,96.107,573.825,570.259,0.0
49169.0,STARLINK-3046,PAYLOAD,2024-02-12 21:52:41,14.98324245,0.000211,70.0039,20.0496,238.8533,121.2419,0.00016525,1.879e-05,0.0,0 STARLINK-3046,1 49169U 21082AR  24043.91158767  .00001879  00000-0  16525-3 0  9996,2 49169  70.0039  20.0496 0002110 238.8533 121.2419 14.98324245133264,6950.211,96.107,573.542,570.609,0.0
49169.0,STARLINK-3046,PAYLOAD,2024-02-13 04:17:13,14.98325221,0.0002656,70.0016,19.3744,261.9359,98.1498,-1.8814e-05,-3.17e-06,0.0,0 STARLINK-3046,1 49169U 21082AR  24044.17863282 -.00000317  00000-0 -18814-4 0  9992,2 49169  70.0016  19.3744 0002656 261.9359  98.1498 14.98325221134517,6950.208,96.107,573.919,570.227,0.0
49169.0,STARLINK-3046,PAYLOAD,2024-02-13 07:29:29,14.9832711,0.0002625,70.0019,19.0384,258.7003,101.3861,1.0783e-05,3.6e-07,0.0,0 STARLINK-3046,1 49169U 21082AR  24044.31215207  .00000036  00000-0  10783-4 0  9999,2 49169  70.0019  19.0384 0002625 258.7003 101.3861 14.98327110133321,6950.202,96.107,573.891,570.242,0.0
49169.0,STARLINK-3046,PAYLOAD,2024-02-13 21:54:42,14.98325516,0.000271,70.0019,17.5242,259.7522,100.3331,8.3498e-06,7e-08,0.0,0 STARLINK-3046,1 49169U 21082AR  24044.91299295  .00000007  00000-0  83498-5 0  9996,2 49169  70.0019  17.5242 0002710 259.7522 100.3331 14.98325516133418,6950.207,96.107,573.955,570.188,0.0
49169.0,STARLINK-3046,PAYLOAD,2024-02-14 04:19:14,14.98335504,0.0002497,70.0017,16.8503,255.6202,104.468,0.00012123,1.354e-05,0.0,0 STARLINK-3046,1 49169U 21082AR  24045.18002444  .00001354  00000-0  12123-3 0  9995,2 49169  70.0017  16.8503 0002497 255.6202 104.4680 14.98335504134668,6950.176,96.107,573.776,570.305,0.0
49169.0,STARLINK-3046,PAYLOAD,2024-02-14 07:31:30,14.98328863,0.0002844,70.0013,16.5137,267.5467,92.5366,0.00018693,2.138e-05,0.0,0 STARLINK-3046,1 49169U 21082AR  24045.31354706  .00002138  00000-0  18693-3 0  9990,2 49169  70.0013  16.5137 0002844 267.5467  92.5366 14.98328863133471,6950.196,96.107,574.038,570.085,0.0
49169.0,STARLINK-3046,PAYLOAD,2024-02-14 15:32:10,14.98330793,0.0002273,70.0031,15.672,260.7466,99.3436,7.3679e-05,7.86e-06,0.0,0 STARLINK-3046,1 49169U 21082AR  24045.64734860  .00000786  00000-0  73679-4 0  9992,2 49169  70.0031  15.6720 0002273 260.7466  99.3436 14.98330793134737,6950.19,96.107,573.635,570.476,0.0
49169.0,STARLINK-3046,PAYLOAD,2024-02-14 21:56:43,14.98327098,0.0002798,70.0017,14.997,265.7803,94.3036,6.8815e-05,7.28e-06,0.0,0 STARLINK-3046,1 49169U 21082AR  24045.91439058  .00000728  00000-0  68815-4 0  9995,2 49169  70.0017  14.9970 0002798 265.7803  94.3036 14.98327098133567,6950.202,96.107,574.012,570.122,0.0
49169.0,STARLINK-3046,PAYLOAD,2024-02-15 07:33:31,14.98327258,0.0002667,70.0015,13.988,267.6824,92.4029,0.00010869,1.204e-05,0.0,0 STARLINK-3046,1 49169U 21082AR  24046.31495034  .00001204  00000-0  10869-3 0  9991,2 49169  70.0015  13.9880 0002667 267.6824  92.4029 14.98327258133629,6950.201,96.107,573.92,570.213,0.0
49169.0,STARLINK-3046,PAYLOAD,2024-02-15 15:34:12,14.98327869,0.0002618,70.002,13.1463,271.4124,88.6735,8.3995e-05,9.09e-06,0.0,0 STARLINK-3046,1 49169U 21082AR  24046.64875166  .00000909  00000-0  83995-4 0  9997,2 49169  70.0020  13.1463 0002618 271.4124  88.6735 14.98327869134884,6950.199,96.107,573.884,570.245,0.0
49169.0,STARLINK-3046,PAYLOAD,2024-02-15 21:58:44,14.98329068,0.0002903,70.0016,12.4731,270.3134,89.7693,9.6152e-05,1.054e-05,0.0,0 STARLINK-3046,1 49169U 21082AR  24046.91578977  .00001054  00000-0  96152-4 0  9998,2 49169  70.0016  12.4731 0002903 270.3134  89.7693 14.98329068133714,6950.196,96.107,574.078,570.043,0.0
49169.0,STARLINK-3046,PAYLOAD,2024-02-16 07:35:32,14.98335985,0.0002884,70.0013,11.4641,270.4204,89.6624,7.7698e-05,8.34e-06,0.0,0 STARLINK-3046,1 49169U 21082AR  24047.31634584  .00000834  00000-0  77698-4 0  9999,2 49169  70.0013  11.4641 0002884 270.4204  89.6624 14.98335985134985,6950.174,96.107,574.044,570.035,0.0
49169.0,STARLINK-3046,PAYLOAD,2024-02-16 20:24:37,14.9832873,0.0002773,70.0017,10.1176,274.6707,85.4135,7.3106e-05,7.79e-06,0.0,0 STARLINK-3046,1 49169U 21082AR  24047.85042982  .00000779  00000-0  73106-4 0  9991,2 49169  70.0017  10.1176 0002773 274.6707  85.4135 14.98328730135060,6950.197,96.107,573.989,570.135,0.0
49169.0,STARLINK-3046,PAYLOAD,2024-02-16 22:00:45,14.98329235,0.0002755,70.0016,9.9491,274.497,85.5874,6.8969e-05,7.3e-06,0.0,0 STARLINK-3046,1 49169U 21082AR  24047.91718971  .00000730  00000-0  68969-4 0  9994,2 49169  70.0016   9.9491 0002755 274.4970  85.5874 14.98329235133863,6950.195,96.107,573.975,570.145,0.0
49169.0,STARLINK-3046,PAYLOAD,2024-02-17 07:37:33,14.98336613,0.0002798,70.0015,8.9394,273.8425,86.2414,0.00010454,1.155e-05,0.0,0 STARLINK-3046,1 49169U 21082AR  24048.31774399  .00001155  00000-0  10454-3 0  9992,2 49169  70.0015   8.9394 0002798 273.8425  86.2414 14.98336613135136,6950.172,96.107,573.982,570.093,0.0
49169.0,STARLINK-3046,PAYLOAD,2024-02-17 14:02:05,14.98332166,0.0002785,70.0019,8.2664,272.9842,87.0998,6.2836e-06,-1.8e-07,0.0,0 STARLINK-3046,1 49169U 21082AR  24048.58478846 -.00000018  00000-0  62836-5 0  9990,2 49169  70.0019   8.2664 0002785 272.9842  87.0998 14.98332166133966,6950.186,96.107,573.987,570.116,0.0
49169.0,STARLINK-3046,PAYLOAD,2024-02-17 22:02:46,14.98328462,0.000282,70.0018,7.4248,273.8489,86.2347,5.2293e-05,5.31e-06,0.0,0 STARLINK-3046,1 49169U 21082AR  24048.91858942  .00000531  00000-0  52293-4 0  9990,2 49169  70.0018   7.4248 0002820 273.8489  86.2347 14.98328462134011,6950.198,96.107,574.023,570.103,0.0
49169.0,STARLINK-3046,PAYLOAD,2024-02-18 14:04:06,14.98336919,0.0002693,70.0022,5.7418,272.3376,87.7475,1.9466e-05,1.39e-06,0.0,0 STARLINK-3046,1 49169U 21082AR  24049.58618372  .00000139  00000-0  19466-4 0  9994,2 49169  70.0022   5.7418 0002693 272.3376  87.7475 14.98336919134118,6950.171,96.107,573.908,570.165,0.0
49169.0,STARLINK-3046,PAYLOAD,2024-02-18 20:28:38,14.98334188,0.0002619,70.0019,5.0696,267.0895,92.9964,5.4193e-05,5.54e-06,0.0,0 STARLINK-3046,1 49169U 21082AR  24049.85322414  .00000554  00000-0  54193-4 0  9990,2 49169  70.0019   5.0696 0002619 267.0895  92.9964 14.98334188135365,6950.18,96.107,573.865,570.225,0.0
49169.0,STARLINK-3046,PAYLOAD,2024-02-18 22:04:46,14.98333695,0.0002641,70.0019,4.9014,266.3461,93.7396,4.8726e-05,4.89e-06,0.0,0 STARLINK-3046,1 49169U 21082AR  24049.91998431  .00000489  00000-0  48726-4 0  9997,2 49169  70.0019   4.9014 0002641 266.3461  93.7396 14.98333695134160,6950.181,96.107,573.882,570.211,0.0
49169.0,STARLINK-3046,PAYLOAD,2024-02-19 14:06:07,14.98344495,0.0002089,70.0043,3.2154,279.2167,80.8755,-0.00039724,-4.831e-05,0.0,0 STARLINK-3046,1 49169U 21082AR  24050.58758806 -.00004831  00000-0 -39724-3 0  9996,2 49169  70.0043   3.2154 0002089 279.2167  80.8755 14.98344495134263,6950.148,96.106,573.465,570.561,0.0
49169.0,STARLINK-3046,PAYLOAD,2024-02-19 20:30:40,14.98320695,0.00028,70.0034,2.5409,275.5524,84.5316,8.9281e-05,9.72e-06,0.0,0 STARLINK-3046,1 49169U 21082AR  24050.85463077  .00000972  00000-0  89281-4 0  9993,2 49169  70.0034   2.5409 0002800 275.5524  84.5316 14.98320695135514,6950.222,96.108,574.033,570.141,0.0
49169.0,STARLINK-3046,PAYLOAD,2024-02-19 22:06:48,14.98321384,0.0002735,70.0022,2.3772,268.7359,91.3487,-7.247e-05,-9.57e-06,0.0,0 STARLINK-3046,1 49169U 21082AR  24050.92139463 -.00000957  00000-0 -72470-4 0  9997,2 49169  70.0022   2.3772 0002735 268.7359  91.3487 14.98321384134317,6950.22,96.108,573.985,570.184,0.0
49169.0,STARLINK-3046,PAYLOAD,2024-02-20 14:08:08,14.98329306,0.0003008,70.0015,0.6922,269.7447,90.3367,-2.0009e-05,-3.32e-06,0.0,0 STARLINK-3046,1 49169U 21082AR  24051.58898987 -.00000332  00000-0 -20009-4 0  9991,2 49169  70.0015   0.6922 0003008 269.7447  90.3367 14.98329306134419,6950.195,96.107,574.151,569.969,0.0
49169.0,STARLINK-3046,PAYLOAD,2024-02-20 22:08:48,14.98330301,0.0003003,70.0015,359.8511,269.7105,90.371,7.2269e-05,7.69e-06,0.0,0 STARLINK-3046,1 49169U 21082AR  24051.92278708  .00000769  00000-0  72269-4 0  9999,2 49169  70.0015 359.8511 0003003 269.7105  90.3710 14.98330301134462,6950.192,96.107,574.144,569.97,0.0
